NORAD_CAT_ID,OBJECT_NAME,OBJECT_TYPE,EPOCH,MEAN_MOTION,ECCENTRICITY,INCLINATION,RA_OF_ASC_NODE,ARG_OF_PERICENTER,MEAN_ANOMALY,BSTAR,MEAN_MOTION_DOT,MEAN_MOTION_DDOT,TLE_LINE0,TLE_LINE1,TLE_LINE2,SEMIMAJOR_AXIS,PERIOD,APOGEE,PERIGEE,DECAYED
54175.0,STARLINK-5256,PAYLOAD,2024-06-12 11:43:26,15.08839628,0.0001157,53.2179,335.6612,69.904,290.2077,0.00046393,7.103e-05,0.0,0 STARLINK-5256,1 54175U 22141U   24164.48850572  .00007103  00000-0  46393-3 0  9997,2 54175  53.2179 335.6612 0001157  69.9040 290.2077 15.08839628 89968,6917.882,95.438,540.547,538.946,0.0
54175.0,STARLINK-5256,PAYLOAD,2024-06-12 16:29:36,15.08843194,0.0001202,53.2181,334.7683,88.6379,271.4751,0.00050811,7.809e-05,0.0,0 STARLINK-5256,1 54175U 22141U   24164.68722516  .00007809  00000-0  50811-3 0  9998,2 54175  53.2181 334.7683 0001202  88.6379 271.4751 15.08843194 89999,6917.871,95.437,540.567,538.904,0.0
54175.0,STARLINK-5256,PAYLOAD,2024-06-13 11:34:14,15.08848674,0.000139,53.2178,331.2021,56.4924,303.62,0.00071734,0.0001115,0.0,0 STARLINK-5256,1 54175U 22141U   24165.48210763  .00011150  00000-0  71734-3 0  9994,2 54175  53.2178 331.2021 0001390  56.4924 303.6200 15.08848674 90111,6917.854,95.437,540.68,538.757,0.0
54175.0,STARLINK-5256,PAYLOAD,2024-06-13 14:45:00,15.08852471,0.0001322,53.2176,330.6052,74.3811,285.7327,0.00071906,0.00011178,0.0,0 STARLINK-5256,1 54175U 22141U   24165.61458544  .00011178  00000-0  71906-3 0  9991,2 54175  53.2176 330.6052 0001322  74.3811 285.7327 15.08852471 90137,6917.842,95.437,540.622,538.793,0.0
54175.0,STARLINK-5256,PAYLOAD,2024-06-13 17:55:46,15.08857265,0.0001289,53.2182,330.0124,87.202,272.912,0.00079882,0.00012454,0.0,0 STARLINK-5256,1 54175U 22141U   24165.74706330  .00012454  00000-0  79882-3 0  9993,2 54175  53.2182 330.0124 0001289  87.2020 272.9120 15.08857265 90152,6917.828,95.436,540.584,538.801,0.0
54175.0,STARLINK-5256,PAYLOAD,2024-06-14 14:35:47,15.08845803,0.0001778,53.2197,326.1523,122.4057,237.7108,0.00020473,2.972e-05,0.0,0 STARLINK-5256,1 54175U 22141U   24166.60818289  .00002972  00000-0  20473-3 0  9992,2 54175  53.2197 326.1523 0001778 122.4057 237.7108 15.08845803 90286,6917.863,95.437,540.958,538.498,0.0
54175.0,STARLINK-5256,PAYLOAD,2024-06-14 17:46:33,15.08845695,0.0001679,53.2199,325.5564,118.0155,242.1007,0.00021895,3.199e-05,0.0,0 STARLINK-5256,1 54175U 22141U   24166.74066370  .00003199  00000-0  21895-3 0  9994,2 54175  53.2199 325.5564 0001679 118.0155 242.1007 15.08845695 90306,6917.863,95.437,540.889,538.566,0.0
54175.0,STARLINK-5256,PAYLOAD,2024-06-15 14:26:34,15.08840825,0.0001568,53.2198,321.6909,115.4167,244.6988,0.00017291,2.465e-05,0.0,0 STARLINK-5256,1 54175U 22141U   24167.60178518  .00002465  00000-0  17291-3 0  9998,2 54175  53.2198 321.6909 0001568 115.4167 244.6988 15.08840825 90435,6917.878,95.438,540.828,538.658,0.0
54175.0,STARLINK-5256,PAYLOAD,2024-06-15 19:12:43,15.08847711,0.0001545,53.219,320.7923,86.9639,273.153,0.00018893,2.721e-05,0.0,0 STARLINK-5256,1 54175U 22141U   24167.80050338  .00002721  00000-0  18893-3 0  9993,2 54175  53.2190 320.7923 0001545  86.9639 273.1530 15.08847711 90468,6917.857,95.437,540.791,538.653,0.0
54175.0,STARLINK-5256,PAYLOAD,2024-06-16 14:17:21,15.08841613,0.000171,53.2196,317.2244,77.2991,282.8192,0.00013936,1.931e-05,0.0,0 STARLINK-5256,1 54175U 22141U   24168.59538641  .00001931  00000-0  13936-3 0  9993,2 54175  53.2196 317.2244 0001710  77.2991 282.8192 15.08841613 90588,6917.875,95.437,540.923,538.558,0.0
54175.0,STARLINK-5256,PAYLOAD,2024-06-16 19:03:30,15.08842607,0.0001392,53.2179,316.3336,76.2771,283.8376,0.00011387,1.525e-05,0.0,0 STARLINK-5256,1 54175U 22141U   24168.79410519  .00001525  00000-0  11387-3 0  9995,2 54175  53.2179 316.3336 0001392  76.2771 283.8376 15.08842607 90615,6917.872,95.437,540.7,538.774,0.0
54175.0,STARLINK-5256,PAYLOAD,2024-06-17 15:43:31,15.08837371,0.0001236,53.2167,312.4685,83.5143,276.599,6.3345e-05,7.2e-06,0.0,0 STARLINK-5256,1 54175U 22141U   24169.65522866  .00000720  00000-0  63345-4 0  9998,2 54175  53.2167 312.4685 0001236  83.5143 276.5990 15.08837371 90744,6917.888,95.438,540.608,538.898,0.0
54175.0,STARLINK-5256,PAYLOAD,2024-06-18 13:58:55,15.0883776,0.00012,53.2181,308.3063,80.6227,279.4901,8.9102e-05,1.13e-05,0.0,0 STARLINK-5256,1 54175U 22141U   24170.58259040  .00001130  00000-0  89102-4 0  9998,2 54175  53.2181 308.3063 0001200  80.6227 279.4901 15.08837760 90887,6917.887,95.438,540.582,538.922,0.0
54175.0,STARLINK-5256,PAYLOAD,2024-06-18 15:34:18,15.08838808,0.0001162,53.2165,308.0082,81.9349,278.1775,0.00010172,1.331e-05,0.0,0 STARLINK-5256,1 54175U 22141U   24170.64882907  .00001331  00000-0  10172-3 0  9992,2 54175  53.2165 308.0082 0001162  81.9349 278.1775 15.08838808 90893,6917.884,95.438,540.553,538.945,0.0
54175.0,STARLINK-5256,PAYLOAD,2024-06-19 02:42:01,15.08827348,0.0001204,53.2165,305.9269,91.2167,268.8963,0.00031452,4.72e-05,0.0,0 STARLINK-5256,1 54175U 22141U   24171.11251351  .00004720  00000-0  31452-3 0  9997,2 54175  53.2165 305.9269 0001204  91.2167 268.8963 15.08827348 90965,6917.919,95.438,540.617,538.951,0.0
54175.0,STARLINK-5256,PAYLOAD,2024-06-19 12:14:20,15.08809509,0.0001257,53.2174,304.1421,96.8066,263.307,0.00039056,5.928e-05,0.0,0 STARLINK-5256,1 54175U 22141U   24171.50996336  .00005928  00000-0  39056-3 0  9998,2 54175  53.2174 304.1421 0001257  96.8066 263.3070 15.08809509 91029,6917.974,95.439,540.708,538.969,0.0
54175.0,STARLINK-5256,PAYLOAD,2024-06-19 13:49:43,15.08822249,0.0001302,53.2178,303.8449,92.7281,267.386,0.00022177,3.242e-05,0.0,0 STARLINK-5256,1 54175U 22141U   24171.57619878  .00003242  00000-0  22177-3 0  9991,2 54175  53.2178 303.8449 0001302  92.7281 267.3860 15.08822249 91032,6917.935,95.439,540.7,538.899,0.0
54175.0,STARLINK-5256,PAYLOAD,2024-06-19 18:35:52,15.08839464,0.0001263,53.2187,302.9512,101.2125,258.9009,4.3921e-05,4.11e-06,0.0,0 STARLINK-5256,1 54175U 22141U   24171.77491070  .00000411  00000-0  43921-4 0  9991,2 54175  53.2187 302.9512 0001263 101.2125 258.9009 15.08839464 91063,6917.882,95.438,540.621,538.873,0.0
54175.0,STARLINK-5256,PAYLOAD,2024-06-20 13:40:30,15.08834785,0.0001248,53.2191,299.382,104.7473,255.3658,0.00012449,1.694e-05,0.0,0 STARLINK-5256,1 54175U 22141U   24172.56979309  .00001694  00000-0  12449-3 0  9999,2 54175  53.2191 299.3820 0001248 104.7473 255.3658 15.08834785 91181,6917.896,95.438,540.625,538.898,0.0
54175.0,STARLINK-5256,PAYLOAD,2024-06-20 15:15:53,15.08842328,0.0001363,53.2186,299.0848,99.2314,260.8833,1.57e-05,-3.8e-07,0.0,0 STARLINK-5256,1 54175U 22141U   24172.63603156 -.00000038  00000-0  15700-4 0  9997,2 54175  53.2186 299.0848 0001363  99.2314 260.8833 15.08842328 91191,6917.873,95.437,540.681,538.795,0.0
54175.0,STARLINK-5256,PAYLOAD,2024-06-21 11:55:52,15.08881756,0.0001573,53.2179,295.2187,92.2183,267.8989,-0.00054804,-9.01e-05,0.0,0 STARLINK-5256,1 54175U 22141U   24173.49713906 -.00009010  00000-0 -54804-3 0  9994,2 54175  53.2179 295.2187 0001573  92.2183 267.8989 15.08881756 91329,6917.753,95.435,540.706,538.53,0.0
54175.0,STARLINK-5256,PAYLOAD,2024-06-21 13:31:17,15.08838753,0.0001383,53.2182,294.9219,102.4863,257.6284,0.0001006,1.313e-05,0.0,0 STARLINK-5256,1 54175U 22141U   24173.56339302  .00001313  00000-0  10060-3 0  9998,2 54175  53.2182 294.9219 0001383 102.4863 257.6284 15.08838753 91338,6917.884,95.438,540.706,538.792,0.0
54175.0,STARLINK-5256,PAYLOAD,2024-06-21 15:06:40,15.08841463,0.0001322,53.2179,294.6244,100.5502,259.5639,9.0391e-05,1.151e-05,0.0,0 STARLINK-5256,1 54175U 22141U   24173.62963165  .00001151  00000-0  90391-4 0  9991,2 54175  53.2179 294.6244 0001322 100.5502 259.5639 15.08841463 91349,6917.876,95.437,540.655,538.826,0.0
54175.0,STARLINK-5256,PAYLOAD,2024-06-22 13:22:04,15.08835675,0.0001394,53.2186,290.4645,105.0144,255.1003,2.684e-05,1.39e-06,0.0,0 STARLINK-5256,1 54175U 22141U   24174.55699914  .00000139  00000-0  26840-4 0  9995,2 54175  53.2186 290.4645 0001394 105.0144 255.1003 15.08835675 91487,6917.894,95.438,540.723,538.794,0.0
54175.0,STARLINK-5256,PAYLOAD,2024-06-22 14:57:27,15.08836338,0.0001356,53.2186,290.1678,101.2454,258.8691,3.2021e-05,2.22e-06,0.0,0 STARLINK-5256,1 54175U 22141U   24174.62323888  .00000222  00000-0  32021-4 0  9998,2 54175  53.2186 290.1678 0001356 101.2454 258.8691 15.08836338 91491,6917.892,95.438,540.695,538.819,0.0
54175.0,STARLINK-5256,PAYLOAD,2024-06-23 13:12:51,15.08841419,0.000138,53.2185,286.0037,102.416,257.6986,5.5892e-05,6.02e-06,0.0,0 STARLINK-5256,1 54175U 22141U   24175.55059556  .00000602  00000-0  55892-4 0  9992,2 54175  53.2185 286.0037 0001380 102.4160 257.6986 15.08841419 91633,6917.876,95.437,540.696,538.786,0.0
54175.0,STARLINK-5256,PAYLOAD,2024-06-23 17:59:00,15.0884084,0.0001588,53.2187,285.1105,90.0255,270.092,0.0001695,2.411e-05,0.0,0 STARLINK-5256,1 54175U 22141U   24175.74931418  .00002411  00000-0  16950-3 0  9990,2 54175  53.2187 285.1105 0001588  90.0255 270.0920 15.08840840 91665,6917.878,95.438,540.841,538.644,0.0
54175.0,STARLINK-5256,PAYLOAD,2024-06-24 13:03:38,15.08840666,0.0001511,53.2182,281.5416,65.3653,294.7496,7.5681e-05,9.17e-06,0.0,0 STARLINK-5256,1 54175U 22141U   24176.54419702  .00000917  00000-0  75681-4 0  9992,2 54175  53.2182 281.5416 0001511  65.3653 294.7496 15.08840666 91788,6917.878,95.438,540.789,538.698,0.0
54175.0,STARLINK-5256,PAYLOAD,2024-06-24 14:39:01,15.08841757,0.0001764,53.2189,281.2464,52.8737,307.2416,0.00012841,1.756e-05,0.0,0 STARLINK-5256,1 54175U 22141U   24176.61043596  .00001756  00000-0  12841-3 0  9994,2 54175  53.2189 281.2464 0001764  52.8737 307.2416 15.08841757 91794,6917.875,95.437,540.96,538.52,0.0
54175.0,STARLINK-5256,PAYLOAD,2024-06-25 12:54:25,15.08843097,0.0001405,53.2184,277.08,79.6061,280.5089,-6.5172e-06,-3.92e-06,0.0,0 STARLINK-5256,1 54175U 22141U   24177.53779684 -.00000392  00000-0 -65172-5 0  9994,2 54175  53.2184 277.0800 0001405  79.6061 280.5089 15.08843097 91939,6917.871,95.437,540.708,538.764,0.0
